{"type": "FeatureCollection", "features": [ {"type": "Feature", "properties": {"norad_id": 58662, "name": "TIANMU-1 21", "group": "weather", "lat": 10.002582571684018, "lon": 89.49631338530902, "alt_km": 472.51420050894103, "timestamp": "2025-12-03T10:52:57.090605+00:00", "meta": {"OBJECT_NAME": "TIANMU-1 21", "OBJECT_ID": "2023-208C", "EPOCH": "2025-12-03T04:33:54.357408", "MEAN_MOTION": 15.31225503, "ECCENTRICITY": 0.0005972, "INCLINATION": 97.4376, "RA_OF_ASC_NODE": 90.5526, "ARG_OF_PERICENTER": 300.0168, "MEAN_ANOMALY": 60.048, "EPHEMERIS_TYPE": 0, "CLASSIFICATION_TYPE": "U", "NORAD_CAT_ID": 58662, "ELEMENT_SET_NO": 999, "REV_AT_EPOCH": 10753, "BSTAR": 0.00049712, "MEAN_MOTION_DOT": 0.00014936, "MEAN_MOTION_DDOT": 0}, "tle": {"line1": "1 58662U 23208C   25337.19021247  .00014936  00000+0  49712-3 0  9996", "line2": "2 58662  97.4376  90.5526 0005972 300.0168  60.0480 15.31225503107534"}}, "geometry": {"type": "Point", "coordinates": [89.49631338530902, 10.002582571684018]}}, {"type": "Feature", "properties": {"norad_id": 58663, "name": "TIANMU-1 22", "group": "weather", "lat": 62.15756240102884, "lon": 74.2523613674588, "alt_km": 477.7919264958455, "timestamp": "2025-12-03T10:52:57.090615+00:00", "meta": {"OBJECT_NAME": "TIANMU-1 22", "OBJECT_ID": "2023-208D", "EPOCH": "2025-12-03T05:53:24.966240", "MEAN_MOTION": 15.27345736, "ECCENTRICITY": 0.0003077, "INCLINATION": 97.4387, "RA_OF_ASC_NODE": 88.3667, "ARG_OF_PERICENTER": 331.7815, "MEAN_ANOMALY": 28.3257, "EPHEMERIS_TYPE": 0, "CLASSIFICATION_TYPE": "U", "NORAD_CAT_ID": 58663, "ELEMENT_SET_NO": 999, "REV_AT_EPOCH": 10738, "BSTAR": 0.0004567, "MEAN_MOTION_DOT": 0.00012165, "MEAN_MOTION_DDOT": 0}, "tle": {"line1": "1 58663U 23208D   25337.24542785  .00012165  00000+0  45670-3 0  9999", "line2": "2 58663  97.4387  88.3667 0003077 331.7815  28.3257 15.27345736107380"}}, "geometry": {"type": "Point", "coordinates": [74.2523613674588, 62.15756240102884]}}, {"type": "Feature", "properties": {"norad_id": 58700, "name": "TIANMU-1 15", "group": "weather", "lat": -69.48132958907904, "lon": 179.45833322516418, "alt_km": 496.9052494055404, "timestamp": "2025-12-03T10:52:57.090626+00:00", "meta": {"OBJECT_NAME": "TIANMU-1 15", "OBJECT_ID": "2024-004A", "EPOCH": "2025-12-03T04:53:28.415040", "MEAN_MOTION": 15.24474622, "ECCENTRICITY": 0.0005799, "INCLINATION": 97.4625, "RA_OF_ASC_NODE": 158.7079, "ARG_OF_PERICENTER": 336.6565, "MEAN_ANOMALY": 23.4408, "EPHEMERIS_TYPE": 0, "CLASSIFICATION_TYPE": "U", "NORAD_CAT_ID": 58700, "ELEMENT_SET_NO": 999, "REV_AT_EPOCH": 10589, "BSTAR": 0.00038799, "MEAN_MOTION_DOT": 9.467e-05, "MEAN_MOTION_DDOT": 0}, "tle": {"line1": "1 58700U 24004A   25337.20380110  .00009467  00000+0  38799-3 0  9999", "line2": "2 58700  97.4625 158.7079 0005799 336.6565  23.4408 15.24474622105897"}}, "geometry": {"type": "Point", "coordinates": [179.45833322516418, -69.48132958907904]}}, {"type": "Feature", "properties": {"norad_id": 58701, "name": "TIANMU-1 16", "group": "weather", "lat": 19.08970272968851, "lon": 155.75796327367297, "alt_km": 490.9711069637042, "timestamp": "2025-12-03T10:52:57.090636+00:00", "meta": {"OBJECT_NAME": "TIANMU-1 16", "OBJECT_ID": "2024-004B", "EPOCH": "2025-12-02T23:46:09.262272", "MEAN_MOTION": 15.24215807, "ECCENTRICITY": 0.0005055, "INCLINATION": 97.4572, "RA_OF_ASC_NODE": 157.8955, "ARG_OF_PERICENTER": 336.3217, "MEAN_ANOMALY": 23.7787, "EPHEMERIS_TYPE": 0, "CLASSIFICATION_TYPE": "U", "NORAD_CAT_ID": 58701, "ELEMENT_SET_NO": 999, "REV_AT_EPOCH": 10586, "BSTAR": 6.5909e-05, "MEAN_MOTION_DOT": 1.535e-05, "MEAN_MOTION_DDOT": 0}, "tle": {"line1": "1 58701U 24004B   25336.99038498  .00001535  00000+0  65909-4 0  9996", "line2": "2 58701  97.4572 157.8955 0005055 336.3217  23.7787 15.24215807105866"}}, "geometry": {"type": "Point", "coordinates": [155.75796327367297, 19.08970272968851]}}, {"type": "Feature", "properties": {"norad_id": 58702, "name": "TIANMU-1 17", "group": "weather", "lat": 75.54378237468053, "lon": 9.309684567458662, "alt_km": 487.45020734575155, "timestamp": "2025-12-03T10:52:57.090646+00:00", "meta": {"OBJECT_NAME": "TIANMU-1 17", "OBJECT_ID": "2024-004C", "EPOCH": "2025-12-03T04:07:58.619136", "MEAN_MOTION": 15.24272508, "ECCENTRICITY": 0.0004336, "INCLINATION": 97.4599, "RA_OF_ASC_NODE": 158.4814, "ARG_OF_PERICENTER": 339.8594, "MEAN_ANOMALY": 20.2472, "EPHEMERIS_TYPE": 0, "CLASSIFICATION_TYPE": "U", "NORAD_CAT_ID": 58702, "ELEMENT_SET_NO": 999, "REV_AT_EPOCH": 10588, "BSTAR": 0.00038116, "MEAN_MOTION_DOT": 9.241e-05, "MEAN_MOTION_DDOT": 0}, "tle": {"line1": "1 58702U 24004C   25337.17220624  .00009241  00000+0  38116-3 0  9993", "line2": "2 58702  97.4599 158.4814 0004336 339.8594  20.2472 15.24272508105880"}}, "geometry": {"type": "Point", "coordinates": [9.309684567458662, 75.54378237468053]}}, {"type": "Feature", "properties": {"norad_id": 58703, "name": "TIANMU-1 18", "group": "weather", "lat": -14.187162431276752, "lon": -22.944134251448943, "alt_km": 499.8289925803165, "timestamp": "2025-12-03T10:52:57.090660+00:00", "meta": {"OBJECT_NAME": "TIANMU-1 18", "OBJECT_ID": "2024-004D", "EPOCH": "2025-12-03T05:18:23.166144", "MEAN_MOTION": 15.24265506, "ECCENTRICITY": 0.0003697, "INCLINATION": 97.4616, "RA_OF_ASC_NODE": 158.7233, "ARG_OF_PERICENTER": 341.2836, "MEAN_ANOMALY": 18.8265, "EPHEMERIS_TYPE": 0, "CLASSIFICATION_TYPE": "U", "NORAD_CAT_ID": 58703, "ELEMENT_SET_NO": 999, "REV_AT_EPOCH": 10589, "BSTAR": 0.0003584, "MEAN_MOTION_DOT": 8.682e-05, "MEAN_MOTION_DDOT": 0}, "tle": {"line1": "1 58703U 24004D   25337.22110146  .00008682  00000+0  35840-3 0  9996", "line2": "2 58703  97.4616 158.7233 0003697 341.2836  18.8265 15.24265506105898"}}, "geometry": {"type": "Point", "coordinates": [-22.944134251448943, -14.187162431276752]}}, {"type": "Feature", "properties": {"norad_id": 58990, "name": "INSAT-3DS", "group": "weather", "lat": 0.0015320700440390963, "lon": -42.14621715041238, "alt_km": 35783.060200935324, "timestamp": "2025-12-03T10:52:57.090671+00:00", "meta": {"OBJECT_NAME": "INSAT-3DS", "OBJECT_ID": "2024-033A", "EPOCH": "2025-12-03T03:52:21.155808", "MEAN_MOTION": 1.00268846, "ECCENTRICITY": 0.0001756, "INCLINATION": 0.0142, "RA_OF_ASC_NODE": 315.2718, "ARG_OF_PERICENTER": 303.9272, "MEAN_ANOMALY": 313.2286, "EPHEMERIS_TYPE": 0, "CLASSIFICATION_TYPE": "U", "NORAD_CAT_ID": 58990, "ELEMENT_SET_NO": 999, "REV_AT_EPOCH": 4510, "BSTAR": 0, "MEAN_MOTION_DOT": 0, "MEAN_MOTION_DDOT": 0}, "tle": {"line1": "1 58990U 24033A   25337.16135597  .00000000  00000+0  00000+0 0  9998", "line2": "2 58990   0.0142 315.2718 0001756 303.9272 313.2286  1.00268846 45102"}}, "geometry": {"type": "Point", "coordinates": [-42.14621715041238, 0.0015320700440390963]}}, {"type": "Feature", "properties": {"norad_id": 59051, "name": "METEOR-M2 4", "group": "weather", "lat": 7.599543049601219, "lon": 115.67573198195022, "alt_km": 823.728760385673, "timestamp": "2025-12-03T10:52:57.090683+00:00", "meta": {"OBJECT_NAME": "METEOR-M2 4", "OBJECT_ID": "2024-039A", "EPOCH": "2025-12-03T05:00:40.320864", "MEAN_MOTION": 14.22398848, "ECCENTRICITY": 0.0007547, "INCLINATION": 98.6752, "RA_OF_ASC_NODE": 294.2678, "ARG_OF_PERICENTER": 24.9751, "MEAN_ANOMALY": 335.179, "EPHEMERIS_TYPE": 0, "CLASSIFICATION_TYPE": "U", "NORAD_CAT_ID": 59051, "ELEMENT_SET_NO": 999, "REV_AT_EPOCH": 9140, "BSTAR": 4.6761e-05, "MEAN_MOTION_DOT": 6.1e-07, "MEAN_MOTION_DDOT": 0}, "tle": {"line1": "1 59051U 24039A   25337.20880001  .00000061  00000+0  46761-4 0  9991", "line2": "2 59051  98.6752 294.2678 0007547  24.9751 335.1790 14.22398848 91409"}}, "geometry": {"type": "Point", "coordinates": [115.67573198195022, 7.599543049601219]}}, {"type": "Feature", "properties": {"norad_id": 60133, "name": "GOES 19", "group": "weather", "lat": 0.003947855011599681, "lon": 160.56567129133933, "alt_km": 35790.33790108236, "timestamp": "2025-12-03T10:52:57.090694+00:00", "meta": {"OBJECT_NAME": "GOES 19", "OBJECT_ID": "2024-119A", "EPOCH": "2025-12-03T03:07:29.076096", "MEAN_MOTION": 1.0027099, "ECCENTRICITY": 0.0001301, "INCLINATION": 0.0154, "RA_OF_ASC_NODE": 139.874, "ARG_OF_PERICENTER": 157.8752, "MEAN_ANOMALY": 106.1678, "EPHEMERIS_TYPE": 0, "CLASSIFICATION_TYPE": "U", "NORAD_CAT_ID": 60133, "ELEMENT_SET_NO": 999, "REV_AT_EPOCH": 499, "BSTAR": 0, "MEAN_MOTION_DOT": -2.29e-06, "MEAN_MOTION_DDOT": 0}, "tle": {"line1": "1 60133U 24119A   25337.13019764 -.00000229  00000+0  00000+0 0  9993", "line2": "2 60133   0.0154 139.8740 0001301 157.8752 106.1678  1.00270990  4996"}}, "geometry": {"type": "Point", "coordinates": [160.56567129133933, 0.003947855011599681]}}, {"type": "Feature", "properties": {"norad_id": 65815, "name": "FENGYUN 3H", "group": "weather", "lat": 44.80540742192838, "lon": 105.94945184477936, "alt_km": 821.6212481160956, "timestamp": "2025-12-03T10:52:57.090705+00:00", "meta": {"OBJECT_NAME": "FENGYUN 3H", "OBJECT_ID": "2025-219A", "EPOCH": "2025-12-03T03:29:11.863680", "MEAN_MOTION": 14.19900151, "ECCENTRICITY": 6.43e-05, "INCLINATION": 98.657, "RA_OF_ASC_NODE": 276.9447, "ARG_OF_PERICENTER": 70.5811, "MEAN_ANOMALY": 289.5435, "EPHEMERIS_TYPE": 0, "CLASSIFICATION_TYPE": "U", "NORAD_CAT_ID": 65815, "ELEMENT_SET_NO": 999, "REV_AT_EPOCH": 956, "BSTAR": 8.4148e-05, "MEAN_MOTION_DOT": 1.35e-06, "MEAN_MOTION_DDOT": 0}, "tle": {"line1": "1 65815U 25219A   25337.14527620  .00000135  00000+0  84148-4 0  9998", "line2": "2 65815  98.6570 276.9447 0000643  70.5811 289.5435 14.19900151  9563"}}, "geometry": {"type": "Point", "coordinates": [105.94945184477936, 44.80540742192838]}}]}